25042,IRIDIUM 39,1997,99.38,-1.0,-,86.39,Inactive,0,LEO,USA,USA,Unknown,Unknown,Unknown,1 25042U 97069D   25083.54246508  .00002598  00000+0  67873-3 0  9993,2 25042  86.3874 247.4079 0016440 224.8756 135.1120 14.49030228436709,14.49030228,0.001644,LEO
25043,IRIDIUM 38,1997,100.14,-1.0,-,86.39,Inactive,0,LEO,USA,USA,Unknown,Unknown,Unknown,1 25043U 97069E   25083.48787101  .00001497  00000+0  48890-3 0  9991,2 25043  86.3896 268.8005 0003203  54.4474 305.7022 14.37991949434041,14.37991949,0.0003203,LEO
25077,IRIDIUM 42,1997,100.26,-1.0,-,86.39,Inactive,0,LEO,PRC,USA,Unknown,Unknown,Unknown,1 25077U 97077A   25083.45994993  .00001365  00000+0  46117-3 0  9997,2 25077  86.3901 274.8841 0002559  75.8557 284.2924 14.36236894429037,14.36236894,0.0002559,LEO
25078,IRIDIUM 44,1997,99.99,-1.0,-,86.39,Inactive,0,LEO,PRC,USA,Unknown,Unknown,Unknown,1 25078U 97077B   25083.57353922  .00001671  00000+0  52357-3 0  9995,2 25078  86.3908 256.9644 0001255  28.8276 331.2992 14.40122791431525,14.40122791,0.0001255,LEO
25104,IRIDIUM 45,1997,94.84,-1.0,-,86.35,Inactive,0,LEO,USA,USA,Unknown,Unknown,Unknown,1 25104U 97082A   25083.49215675  .00036265  00000+0  14419-2 0  9997,2 25104  86.3544  88.9138 0121927 288.6184  70.1849 15.18432972439175,15.18432972,0.0121927,LEO
25105,IRIDIUM 24,1997,99.86,-1.0,-,86.39,Inactive,0,LEO,USA,USA,Unknown,Unknown,Unknown,1 25105U 97082B   25083.44684026  .00001370  00000+0  41199-3 0  9998,2 25105  86.3872 116.2584 0011494  10.0206 350.1220 14.41966614431007,14.41966614,0.0011494,LEO
25262,IRIDIUM 51,1998,93.96,-1.0,-,86.38,Inactive,0,LEO,PRC,USA,Unknown,Unknown,Unknown,1 25262U 98018A   25083.55737016  .00048366  00000+0  13090-2 0  9996,2 25262  86.3819  97.5264 0098042 212.0842 147.4419 15.32675404434030,15.32675404,0.0098042,LEO
25273,IRIDIUM 57,1998,100.29,-1.0,-,86.4,Inactive,0,LEO,USA,USA,Unknown,Unknown,Unknown,1 25273U 98019B   25083.36069772  .00001305  00000+0  44468-3 0  9991,2 25273  86.4040 180.7718 0002150  92.7778 267.3665 14.35807197412617,14.35807197,0.000215,LEO
